[{"OBJECT_NAME":"STARLINK-32270","OBJECT_ID":"2024-138K","EPOCH":"2026-03-09T22:26:56.664384","MEAN_MOTION":15.3017941,"ECCENTRICITY":0.00017641,"INCLINATION":53.1612,"RA_OF_ASC_NODE":308.5792,"ARG_OF_PERICENTER":44.3255,"MEAN_ANOMALY":315.7887,"EPHEMERIS_TYPE":0,"CLASSIFICATION_TYPE":"U","NORAD_CAT_ID":60364,"ELEMENT_SET_NO":999,"REV_AT_EPOCH":9056,"BSTAR":-2.3791144e-5,"MEAN_MOTION_DOT":-1.064e-5,"MEAN_MOTION_DDOT":0},{"OBJECT_NAME":"OBJECT D","OBJECT_ID":"2024-174D","EPOCH":"2026-03-10T00:15:10.483200","MEAN_MOTION":15.28039787,"ECCENTRICITY":0.00110644,"INCLINATION":97.4441,"RA_OF_ASC_NODE":80.4677,"ARG_OF_PERICENTER":212.9968,"MEAN_ANOMALY":147.0582,"EPHEMERIS_TYPE":0,"CLASSIFICATION_TYPE":"U","NORAD_CAT_ID":61241,"ELEMENT_SET_NO":999,"REV_AT_EPOCH":8076,"BSTAR":0.00036340099,"MEAN_MOTION_DOT":9.884e-5,"MEAN_MOTION_DDOT":0}]
